T2165   18.1   0.15 K14AP 306.81706  355.51222  153.00215   30.25915  0.5806741  0.74712389   1.2028394  2 MPO303068    88   7 2002-2014 0.42 M-h 3Eh MPCLINUX   1803 (292165) 2006 SC6           20140806
T2220   19.5   0.15 K14AP 173.78149  198.94891  303.15503    2.51915  0.3120803  0.58704143   1.4126141  2 MPO276917   225   6 2001-2013 0.41 M-h 3Eh MPCLINUX   8803 (292220) 2006 SU49          20131023
T3054   18.5   0.15 K14AP 310.26793   22.90276  178.33713    6.07765  0.7672772  0.24456893   2.5324169  1 MPO264733    99   5 2002-2011 0.43 M-h 3Eh MPCLINUX   0803 (293054) 2006 WP127         20110822
T3726   22.6   0.15 K14AP 232.58478  301.48114  351.16568    2.00822  0.3704240  0.49530489   1.5820528  0 MPO273714   122   5 2007-2013 0.49 M-h 3Eh MPCLINUX   0803 (293726) 2007 RQ17          20131007
T4739   17.3   0.15 K14AP 163.79148  130.63904  279.60289   36.00003  0.4085209  0.50268024   1.5665401  1 MPO297520   400   5 2008-2014 0.41 M-h 3Eh MPCLINUX   9803 (294739) 2008 CM            20140313
T6318   18.5   0.15 K14AP 199.44752  138.08715  144.84125   47.35268  0.5249162  0.46111509   1.6593188  1 MPO254547    63   5 2009-2013 0.54 M-h 3Eh MPCLINUX   0803 (296318) 2009 EN2           20130210
T6926   15.9   0.15 K14AP 250.75224  265.67515  347.05755   22.25637  0.3569530  0.17151600   3.2082358  0 MPO220914    94   4 2004-2011 0.48 M-v 38h MPCLINUX   0000 (296926) 2010 CR146         20111023
T7274   16.7   0.15 K14AP 250.00426  284.28973  197.46229    1.96302  0.7946569  0.25956582   2.4339093  1 MPO241747   200   7 1996-2012 0.59 M-h 3Eh MPCLINUX   9803 (297274) 1996 SK            20120627
T7300   19.2   0.15 K14AP 356.16452  277.40765  198.75491   16.08139  0.4145569  0.68631957   1.2728732  1 MPO241747   228   8 1998-2012 0.46 M-h 3Eh MPCLINUX   8803 (297300) 1998 SC15          20120812
T7418   18.5   0.15 K14AP 195.50840  224.36923  350.62189   10.35061  0.4669273  1.34877153   0.8112919  3 MPO214993   621   7 2000-2011 0.55 M-h 3Eh MPCLINUX   C802 (297418) 2000 SP43          20111123
T7516   17.0   0.15 K14AP 158.38587  227.97557  200.19311    4.19006  0.3915422  0.16983289   3.2293976  1 MPO258134    73   5 2001-2013 0.45 M-v 38h MPCLINUX   0000 (297516) 2001 BN1           20130313
T9582   18.0   0.15 K14AP 353.59672   64.50078   13.93735   25.84177  0.4657581  0.67226586   1.2905515  2 MPO310850   227   6 2006-2014 0.47 M-h 3Eh MPCLINUX   1803 (299582) 2006 GQ2           20140911
U1011   18.4   0.15 K14AP 210.45214  194.73284  276.91581    5.36776  0.5453654  0.53182384   1.5087740  1 MPO207265   136   4 2008-2011 0.44 M-v 3Eh MPCS       0803 (301011) 2008 JO            20110912
U1844   19.6   0.15 K14AP 180.32337  202.57802  104.24339    0.92819  0.5261770  0.46818430   1.6425735  1 MPO310855   173   7 1990-2011 0.43 M-h 3Eh MPCLINUX   8803 (301844) 1990 UA            20111118
U1964   13.5   0.15 K14AP 131.51033  115.65716  178.44946   10.05486  0.7047694  0.09883798   4.6329059  0 MPO251861   456   5 2000-2013 0.50 M-v 38h MPCLINUX   0005 (301964) 2000 EJ37          20130108
U2010   18.7   0.15 K14AP 116.12791   86.29500    1.89375   56.37706  0.4894035  0.44933408   1.6881971  1 MPO294576   215   5 2000-2014 0.51 M-h 3Eh MPCLINUX   0803 (302010) 2000 SH8           20140412
U2156   18.9   0.15 K14AP 105.02924   18.99839  231.98262   29.50803  0.6453069  0.69006340   1.2682651  3 MPO281571    71   6 2001-2013 0.59 M-h 3Eh MPCLINUX   4803 (302156) 2001 SF286         20131210
U2169   19.9   0.15 K14AP 188.28913  212.43122   30.29048   25.39881  0.7774284  1.38592497   0.7967271  3 MPO276928    44   7 2001-2011 0.61 M-h 3Eh MPCLINUX   C802 (302169) 2001 TD45          20110925
U2311   19.3   0.15 K14AP 207.90995   64.61165  302.24110   11.27294  0.3023188  0.80155079   1.1477537  2 MPO227323   363   5 2002-2012 0.48 M-h 3Eh MPCLINUX   0803 (302311) 2002 AA            20120328
U2523   17.4   0.15 K14AP 283.53068   35.07476  259.08620   10.23855  0.5835130  0.22457669   2.6805645  0 MPO215017   292   4 2002-2011 0.49 M-v 38h MPCLINUX   1804 (302523) 2002 KH3           20111120
U2591   19.7   0.15 K14AP 292.68353   88.36864  244.51917   12.11077  0.1812937  0.55316662   1.4697114  1 MPO285475   107   5 2002-2014 0.44 M-v 38h MPCLINUX   0804 (302591) 2002 QE7           20140120
U2800   19.4   0.15 K14AP  88.15391  325.68408  111.96222   23.49587  0.2802456  0.43414539   1.7273457  1 MPO266779    90   6 2003-2013 0.46 M-v 38h MPCLINUX   0804 (302800) 2003 AA            20130713
U2830   18.8   0.15 K14AP 215.26142   46.13029   38.69579   16.97542  0.4422344  0.55121353   1.4731811  1 MPO297563   238   6 2002-2014 0.50 M-h 3Eh MPCLINUX   0803 (302830) 2003 FB            20140527
U2831   19.0   0.15 K14AP 330.67283  274.34296   24.18107   25.79772  0.5408503  0.60197713   1.3891508  1 MPO224515   311   7 2003-2011 0.42 M-h 3Eh MPCLINUX   8803 (302831) 2003 FH            20111121
U2871   19.4   0.15 K14AP 139.25276  163.42262  121.80627    1.60803  0.3952699  0.38355017   1.8760940  1 MPO208671   154   4 2003-2011 0.45 M-v 38h MPCADO     0804 (302871) 2003 HA22          20111102
U3174   16.7   0.15 K14AP  17.11868   88.06468  203.60899   21.37898  0.4468633  0.29092816   2.2556872  0 MPO310860  1019   6 2001-2014 0.40 M-v 38h MPCLINUX   1804 (303174) 2004 FH11          20140912
U3226   14.6   0.15 K14AP 207.84431  288.12459  114.22363   20.53429  0.4569658  0.16340978   3.3134774  0 MPO300332   234   6 2004-2014 0.46 M-v 38h MPCLINUX   0000 (303226) 2004 NY30          20140624
U3248   18.2   0.15 K14AP 138.69660   49.20588  196.26219   28.53447  0.5740440  0.41893686   1.7689016  1 MPO310860   241   6 2002-2011 0.44 M-h 3Eh MPCLINUX   1803 (303248) 2004 QV16          20111001
U3250   18.2   0.15 K14AP 105.57345   65.20912  119.04789   15.91019  0.6568282  1.14660871   0.9040502  3 MPO208786    80   5 2004-2011 0.50 M-v 3Eh MPCALB     5802 (303250) 2004 RU10          20111018
U3262   18.6   0.15 K14AP 141.36802  189.74219  342.96977   13.23412  0.3106290  0.86040242   1.0948004  2 MPO276929   313   6 1997-2013 0.47 M-h 3Eh MPCLINUX   0803 (303262) 2004 RJ84          20130924
U3449   18.2   0.15 K14AP  88.91916  162.41009   92.63109    6.57679  0.6259410  0.34451993   2.0152386  0 MPO232440   266   4 2004-2011 0.41 M-h 3Eh MPCLINUX   1803 (303449) 2005 BE2           20111101
U3450   20.4   0.15 K14AP 247.18287  130.18109   74.53423    7.28847  0.3303917  0.68967155   1.2687455  2 MPO208841    83   4 2004-2011 0.50 M-v 3Eh MPCADO     8803 (303450) 2005 BY2           20111022
U3712    6.1   0.15 K14AP  50.12803  309.58351  339.15903    1.34639  0.1012318  0.00337573  44.0106022  3 MPO254594    46   6 2005-2012 0.26 M-v 38h MPCLINUX   400A (303712) 2005 PR21          20121020
U3775    3.5   0.15 K14AP  13.39294  223.85605   78.46658   14.02364  0.6670222  0.00084470 110.8324036  1 MPO208925    82  10 1974-2011 0.27 M-v 38h MPCADO     000A (303775) 2005 QU182         20111023
U3933   19.0   0.15 K14AP 325.15689  184.20031   54.46353   19.12913  0.4886678  0.82542485   1.1255143  2 MPO232440   109   6 1999-2011 0.53 M-h 3Eh MPCLINUX   0803 (303933) 2005 VQ            20111202
U4088   19.2   0.15 K14AP 113.36586   49.47879   38.06451   21.23772  0.2506959  0.46808173   1.6428135  2 MPO215035    97   4 2006-2011 0.50 M-v 38h MPCLINUX   0804 (304088) 2006 HX5           20111127
U4153   18.0   0.15 K14AP  32.46060  173.38965  335.25323   33.70365  0.3496874  0.42416544   1.7543350  1 MPO271077    98   5 2006-2013 0.44 M-v 38h MPCLINUX   1804 (304153) 2006 OU10          20130906
U4293   18.8   0.15 K14AP 240.11924   32.97430  208.12882   36.05798  0.3390620  0.77695082   1.1718545  3 MPO215037   200   4 2001-2011 0.51 M-h 3Eh MPCLINUX   4803 (304293) 2006 SQ78          20111111
U4330   18.9   0.15 K14AP 110.41456  176.14950   32.64400   21.04376  0.3099085  0.58785464   1.4113111  1 MPO297572   151   5 2001-2014 0.43 M-h 3Eh MPCLINUX   8803 (304330) 2006 SX217         20140601
U4640   19.1   0.15 K14AP 168.77687  322.49084  240.40946    9.40187  0.5043010  0.58371783   1.4179712  1 MPO241760   170   7 2002-2012 0.50 M-h 3Eh MPCLINUX   0803 (304640) 2006 WW1           20120815
U5090   16.2   0.15 K14AP 197.86757  100.11968   58.78808   26.61537  0.5154673  0.23029247   2.6360252  0 MPO310867   624   4 1991-2012 0.36 M-v 38h MPCLINUX   1804 (305090) 2007 VQ4           20120119
U5543    5.2   0.15 K14AP 353.37907  332.04133   43.21517   25.15568  0.4041550  0.00203018  61.7702467  4 MPO209375    34   4 2008-2011 0.26 M-v 38h MPCADO     400A (305543) 2008 QY40          20111023
U6019   16.1   0.15 K14AP 244.83518  104.68904  206.07497    5.35860  0.4332701  0.16990348   3.2285031  0 MPO215053    77   5 1999-2011 0.46 M-v 38h MPCLINUX   0000 (306019) Duren              20111127
U6173   13.7   0.15 K14AP  83.33515  341.67713  103.48724   11.25573  0.5899338  0.06955284   5.8558887  0 MPO297585   170   6 1998-2014 0.43 M-v 38h MPCLINUX   0000 (306173) 2010 NK83          20140521
U6367   15.7   0.15 K14AP 201.27415  152.81049  346.22136    3.77426  0.7429830  0.24459220   2.5322562  1 MPO266780    65   5 1960-2013 0.32 M-h 3Eh MPCLINUX   1803 (306367) Nut                20130717
U6383   21.6   0.15 K14AP 303.98773  253.77634    2.62636    2.06024  0.5513632  1.20160769   0.8762491  3 MPO248662    79   6 1993-2012 0.56 M-h 3Eh MPCLINUX   C802 (306383) 1993 VD            20121208
U6418   16.3   0.15 K14AP 323.48264  128.78779  104.20650   26.12165  0.4961668  0.17197154   3.2025677  1 MPO211869   171   4 1998-2010 0.53 M-v 38h MPCW       0005 (306418) 1998 KK56          20100624
U6431   17.4   0.15 K14AP  29.85603   54.61600   21.38126   29.16563  0.5337265  0.25242063   2.4796258  1 MPO211873    97   4 1998-2011 0.46 M-v 38h MPCW       1804 (306431) 1998 SR49          20110428
U6462   18.4   0.15 K14AP 350.97176   82.82436  352.37736   30.96379  0.4317332  0.39532152   1.8386642  1 MPO310871   287   5 1999-2014 0.50 M-h 3Eh MPCLINUX   0804 (306462) 1999 RC32          20140910
